<?xml version="1.0" encoding="UTF-8"?>
<gpx creator="https://gpx.studio" version="1.1" xmlns="http://www.topografix.com/GPX/1/1" xmlns:xsi="http://www.w3.org/2001/XMLSchema-instance" xsi:schemaLocation="http://www.topografix.com/GPX/1/1 http://www.topografix.com/GPX/1/1/gpx.xsd http://www.garmin.com/xmlschemas/GpxExtensions/v3 http://www.garmin.com/xmlschemas/GpxExtensionsv3.xsd http://www.garmin.com/xmlschemas/TrackPointExtension/v1 http://www.garmin.com/xmlschemas/TrackPointExtensionv1.xsd http://www.garmin.com/xmlschemas/PowerExtension/v1 http://www.garmin.com/xmlschemas/PowerExtensionv1.xsd http://www.topografix.com/GPX/gpx_style/0/2 http://www.topografix.com/GPX/gpx_style/0/2/gpx_style.xsd" xmlns:gpxtpx="http://www.garmin.com/xmlschemas/TrackPointExtension/v1" xmlns:gpxx="http://www.garmin.com/xmlschemas/GpxExtensions/v3" xmlns:gpxpx="http://www.garmin.com/xmlschemas/PowerExtension/v1" xmlns:gpx_style="http://www.topografix.com/GPX/gpx_style/0/2">
  <metadata>
    <name>Nuevo archivo 2</name>
    <author>
      <name>gpx.studio</name>
      <link href="https://gpx.studio"/>
    </author>
  </metadata>
  <wpt lat="36.717141" lon="-4.489501">
    <ele>52.69595195413693</ele>
    <name>INICIO</name>
  </wpt>
  <trk>
    <name>Nuevo archivo 2</name>
    <trkseg>
      <trkpt lat="36.71714238279381" lon="-4.489501881504083">
        <ele>52.68171974587909</ele>
      </trkpt>
      <trkpt lat="36.71714289543074" lon="-4.489412988244965">
        <ele>52.71663140007366</ele>
      </trkpt>
      <trkpt lat="36.71714289543074" lon="-4.489412988244965">
        <ele>52.71663140007366</ele>
      </trkpt>
      <trkpt lat="36.717283357858534" lon="-4.489413627764662">
        <ele>51.493186014193135</ele>
      </trkpt>
      <trkpt lat="36.717283357858534" lon="-4.489413627764662">
        <ele>51.493186014193135</ele>
      </trkpt>
      <trkpt lat="36.71728233258655" lon="-4.489501881504083">
        <ele>51.511724855306895</ele>
      </trkpt>
      <trkpt lat="36.71714187015688" lon="-4.489501881504083">
        <ele>52.68582666579884</ele>
      </trkpt>
    </trkseg>
  </trk>
</gpx>
